CCSDS_OMM_VERS = 2.0
CREATION_DATE  = 
ORIGINATOR     = 

OBJECT_NAME    = SL-14 R/B
OBJECT_ID      = 1991-042B
CENTER_NAME    = EARTH
REF_FRAME      = TEME
TIME_SYSTEM    = UTC
MEAN_ELEMENT_THEORY = SGP/SGP4

EPOCH          = 2025-12-09T21:04:37.538400
MEAN_MOTION    = 14.81735009
ECCENTRICITY   = .0017186
INCLINATION    = 82.4923
RA_OF_ASC_NODE = 304.4063
ARG_OF_PERICENTER = 170.9604
MEAN_ANOMALY   = 189.1923

EPHEMERIS_TYPE = 0
CLASSIFICATION_TYPE = U
NORAD_CAT_ID   = 21423
ELEMENT_SET_NO = 999
REV_AT_EPOCH   = 83977
BSTAR          = .99254E-4
MEAN_MOTION_DOT = .807E-5
MEAN_MOTION_DDOT = 0

CCSDS_OMM_VERS = 2.0
CREATION_DATE  = 
ORIGINATOR     = 

OBJECT_NAME    = ERS-1
OBJECT_ID      = 1991-050A
CENTER_NAME    = EARTH
REF_FRAME      = TEME
TIME_SYSTEM    = UTC
MEAN_ELEMENT_THEORY = SGP/SGP4

EPOCH          = 2025-12-09T17:56:47.587200
MEAN_MOTION    = 14.39361163
ECCENTRICITY   = .0032965
INCLINATION    = 98.7905
RA_OF_ASC_NODE = 354.7277
ARG_OF_PERICENTER = 108.6360
MEAN_ANOMALY   = 251.8411

EPHEMERIS_TYPE = 0
CLASSIFICATION_TYPE = U
NORAD_CAT_ID   = 21574
ELEMENT_SET_NO = 999
REV_AT_EPOCH   = 80279
BSTAR          = .19956E-3
MEAN_MOTION_DOT = .578E-5
MEAN_MOTION_DDOT = 0

CCSDS_OMM_VERS = 2.0
CREATION_DATE  = 
ORIGINATOR     = 

OBJECT_NAME    = ARIANE 40 R/B
OBJECT_ID      = 1991-050F
CENTER_NAME    = EARTH
REF_FRAME      = TEME
TIME_SYSTEM    = UTC
MEAN_ELEMENT_THEORY = SGP/SGP4

EPOCH          = 2025-12-09T09:19:14.133792
MEAN_MOTION    = 14.42809610
ECCENTRICITY   = .00029924
INCLINATION    = 98.2168
RA_OF_ASC_NODE = 33.9397
ARG_OF_PERICENTER = 11.0822
MEAN_ANOMALY   = 349.0434

EPHEMERIS_TYPE = 0
CLASSIFICATION_TYPE = U
NORAD_CAT_ID   = 21610
ELEMENT_SET_NO = 999
REV_AT_EPOCH   = 80597
BSTAR          = .22131822E-3
MEAN_MOTION_DOT = .696E-5
MEAN_MOTION_DDOT = 0

CCSDS_OMM_VERS = 2.0
CREATION_DATE  = 
ORIGINATOR     = 

OBJECT_NAME    = INTERCOSMOS 25
OBJECT_ID      = 1991-086A
CENTER_NAME    = EARTH
REF_FRAME      = TEME
TIME_SYSTEM    = UTC
MEAN_ELEMENT_THEORY = SGP/SGP4

EPOCH          = 2025-12-09T17:53:53.933568
MEAN_MOTION    = 12.11713327
ECCENTRICITY   = .1486815
INCLINATION    = 82.6074
RA_OF_ASC_NODE = 4.3861
ARG_OF_PERICENTER = 310.8509
MEAN_ANOMALY   = 37.2620

EPHEMERIS_TYPE = 0
CLASSIFICATION_TYPE = U
NORAD_CAT_ID   = 21819
ELEMENT_SET_NO = 999
REV_AT_EPOCH   = 48579
BSTAR          = .48927E-3
MEAN_MOTION_DOT = .2464E-4
MEAN_MOTION_DDOT = 0

CCSDS_OMM_VERS = 2.0
CREATION_DATE  = 
ORIGINATOR     = 

OBJECT_NAME    = SL-8 R/B
OBJECT_ID      = 1992-008B
CENTER_NAME    = EARTH
REF_FRAME      = TEME
TIME_SYSTEM    = UTC
MEAN_ELEMENT_THEORY = SGP/SGP4

EPOCH          = 2025-12-09T17:18:18.160128
MEAN_MOTION    = 13.75958002
ECCENTRICITY   = .0035372
INCLINATION    = 82.9263
RA_OF_ASC_NODE = 334.6920
ARG_OF_PERICENTER = 28.0868
MEAN_ANOMALY   = 147.5438

EPHEMERIS_TYPE = 0
CLASSIFICATION_TYPE = U
NORAD_CAT_ID   = 21876
ELEMENT_SET_NO = 999
REV_AT_EPOCH   = 69704
BSTAR          = .16778E-3
MEAN_MOTION_DOT = .179E-5
MEAN_MOTION_DDOT = 0

CCSDS_OMM_VERS = 2.0
CREATION_DATE  = 
ORIGINATOR     = 

OBJECT_NAME    = SL-8 R/B
OBJECT_ID      = 1992-020B
CENTER_NAME    = EARTH
REF_FRAME      = TEME
TIME_SYSTEM    = UTC
MEAN_ELEMENT_THEORY = SGP/SGP4

EPOCH          = 2025-12-09T10:40:29.867232
MEAN_MOTION    = 13.75526266
ECCENTRICITY   = .00286786
INCLINATION    = 82.9310
RA_OF_ASC_NODE = 220.7642
ARG_OF_PERICENTER = 187.4440
MEAN_ANOMALY   = 345.5330

EPHEMERIS_TYPE = 0
CLASSIFICATION_TYPE = U
NORAD_CAT_ID   = 21938
ELEMENT_SET_NO = 999
REV_AT_EPOCH   = 68872
BSTAR          = .12699334E-3
MEAN_MOTION_DOT = .138E-5
MEAN_MOTION_DDOT = 0

CCSDS_OMM_VERS = 2.0
CREATION_DATE  = 
ORIGINATOR     = 

OBJECT_NAME    = USA 81
OBJECT_ID      = 1992-023A
CENTER_NAME    = EARTH
REF_FRAME      = TEME
TIME_SYSTEM    = UTC
MEAN_ELEMENT_THEORY = SGP/SGP4

EPOCH          = 2025-12-09T19:41:29.841792
MEAN_MOTION    = 14.32325376
ECCENTRICITY   = .000153
INCLINATION    = 85.0083
RA_OF_ASC_NODE = 183.2599
ARG_OF_PERICENTER = 63.2643
MEAN_ANOMALY   = 296.8706

EPHEMERIS_TYPE = 0
CLASSIFICATION_TYPE = U
NORAD_CAT_ID   = 21949
ELEMENT_SET_NO = 999
REV_AT_EPOCH   = 8192
BSTAR          = .10258E-3
MEAN_MOTION_DOT = .297E-5
MEAN_MOTION_DDOT = 0

CCSDS_OMM_VERS = 2.0
CREATION_DATE  = 
ORIGINATOR     = 

OBJECT_NAME    = COSMOS 2219
OBJECT_ID      = 1992-076A
CENTER_NAME    = EARTH
REF_FRAME      = TEME
TIME_SYSTEM    = UTC
MEAN_ELEMENT_THEORY = SGP/SGP4

EPOCH          = 2025-12-09T07:53:56.729184
MEAN_MOTION    = 14.14062715
ECCENTRICITY   = .0019032
INCLINATION    = 71.0587
RA_OF_ASC_NODE = 206.9626
ARG_OF_PERICENTER = 331.4362
MEAN_ANOMALY   = 28.5716

EPHEMERIS_TYPE = 0
CLASSIFICATION_TYPE = U
NORAD_CAT_ID   = 22219
ELEMENT_SET_NO = 999
REV_AT_EPOCH   = 70560
BSTAR          = -.27460852E-4
MEAN_MOTION_DOT = -.1E-5
MEAN_MOTION_DDOT = 0

CCSDS_OMM_VERS = 2.0
CREATION_DATE  = 
ORIGINATOR     = 

OBJECT_NAME    = SL-16 R/B
OBJECT_ID      = 1992-076B
CENTER_NAME    = EARTH
REF_FRAME      = TEME
TIME_SYSTEM    = UTC
MEAN_ELEMENT_THEORY = SGP/SGP4

EPOCH          = 2025-12-09T11:27:40.175712
MEAN_MOTION    = 14.16841244
ECCENTRICITY   = .00149177
INCLINATION    = 71.0010
RA_OF_ASC_NODE = 18.4042
ARG_OF_PERICENTER = 238.6090
MEAN_ANOMALY   = 223.2978

EPHEMERIS_TYPE = 0
CLASSIFICATION_TYPE = U
NORAD_CAT_ID   = 22220
ELEMENT_SET_NO = 999
REV_AT_EPOCH   = 70905
BSTAR          = -.45444379E-4
MEAN_MOTION_DOT = -.139E-5
MEAN_MOTION_DDOT = 0

CCSDS_OMM_VERS = 2.0
CREATION_DATE  = 
ORIGINATOR     = 

OBJECT_NAME    = COSMOS 2221
OBJECT_ID      = 1992-080A
CENTER_NAME    = EARTH
REF_FRAME      = TEME
TIME_SYSTEM    = UTC
MEAN_ELEMENT_THEORY = SGP/SGP4

EPOCH          = 2025-12-09T19:22:44.151744
MEAN_MOTION    = 14.95743657
ECCENTRICITY   = .0015866
INCLINATION    = 82.5045
RA_OF_ASC_NODE = 5.1319
ARG_OF_PERICENTER = 130.6276
MEAN_ANOMALY   = 229.6329

EPHEMERIS_TYPE = 0
CLASSIFICATION_TYPE = U
NORAD_CAT_ID   = 22236
ELEMENT_SET_NO = 999
REV_AT_EPOCH   = 76735
BSTAR          = .29876E-3
MEAN_MOTION_DOT = .3361E-4
MEAN_MOTION_DDOT = 0

CCSDS_OMM_VERS = 2.0
CREATION_DATE  = 
ORIGINATOR     = 

OBJECT_NAME    = SL-16 R/B
OBJECT_ID      = 1992-093B
CENTER_NAME    = EARTH
REF_FRAME      = TEME
TIME_SYSTEM    = UTC
MEAN_ELEMENT_THEORY = SGP/SGP4

EPOCH          = 2025-12-09T06:44:56.423040
MEAN_MOTION    = 14.15427072
ECCENTRICITY   = .0002086
INCLINATION    = 71.0202
RA_OF_ASC_NODE = 194.0560
ARG_OF_PERICENTER = 82.2848
MEAN_ANOMALY   = 277.8511

EPHEMERIS_TYPE = 0
CLASSIFICATION_TYPE = U
NORAD_CAT_ID   = 22285
ELEMENT_SET_NO = 999
REV_AT_EPOCH   = 70036
BSTAR          = .13896E-3
MEAN_MOTION_DOT = .224E-5
MEAN_MOTION_DDOT = 0

CCSDS_OMM_VERS = 2.0
CREATION_DATE  = 
ORIGINATOR     = 

OBJECT_NAME    = COSMOS 2228
OBJECT_ID      = 1992-094A
CENTER_NAME    = EARTH
REF_FRAME      = TEME
TIME_SYSTEM    = UTC
MEAN_ELEMENT_THEORY = SGP/SGP4

EPOCH          = 2025-12-09T21:10:40.382976
MEAN_MOTION    = 14.96709052
ECCENTRICITY   = .0016384
INCLINATION    = 82.5179
RA_OF_ASC_NODE = 323.2683
ARG_OF_PERICENTER = 241.8021
MEAN_ANOMALY   = 118.1547

EPHEMERIS_TYPE = 0
CLASSIFICATION_TYPE = U
NORAD_CAT_ID   = 22286
ELEMENT_SET_NO = 999
REV_AT_EPOCH   = 76262
BSTAR          = .37198E-3
MEAN_MOTION_DOT = .4283E-4
MEAN_MOTION_DDOT = 0

