SL-14 R/B               
1 21423U 91042B   25343.87821225  .00000807  00000+0  99254-4 0  9997
2 21423  82.4923 304.4063 0017186 170.9604 189.1923 14.81735009839777
ERS-1                   
1 21574U 91050A   25343.74777300  .00000578  00000+0  19956-3 0  9998
2 21574  98.7905 354.7277 0032965 108.6360 251.8411 14.39361163802798
ARIANE 40 R/B           
1 21610U 91050F   25343.38835803  .00000696  00000+0  22132-3 0  9993
2 21610  98.2168  33.9397 0002992  11.0822 349.0434 14.42809610805977
INTERCOSMOS 25          
1 21819U 91086A   25343.74576312  .00002464  00000+0  48927-3 0  9995
2 21819  82.6074   4.3861 1486815 310.8509  37.2620 12.11713327485792
SL-8 R/B                
1 21876U 92008B   25343.72104352  .00000179  00000+0  16778-3 0  9992
2 21876  82.9263 334.6920 0035372  28.0868 147.5438 13.75958002697043
SL-8 R/B                
1 21938U 92020B   25343.44479013  .00000138  00000+0  12699-3 0  9996
2 21938  82.9310 220.7642 0028678 187.4440 345.5330 13.75526266688727
USA 81                  
1 21949U 92023A   25343.82048428  .00000297  00000+0  10258-3 0  9990
2 21949  85.0083 183.2599 0001530  63.2643 296.8706 14.32325376 81925
COSMOS 2219             
1 22219U 92076A   25343.32912881 -.00000100  00000+0 -27461-4 0  9997
2 22219  71.0587 206.9626 0019032 331.4362  28.5716 14.14062715705602
SL-16 R/B               
1 22220U 92076B   25343.47754833 -.00000139  00000+0 -45444-4 0  9999
2 22220  71.0010  18.4042 0014917 238.6090 223.2978 14.16841244709057
COSMOS 2221             
1 22236U 92080A   25343.80745546  .00003361  00000+0  29876-3 0  9997
2 22236  82.5045   5.1319 0015866 130.6276 229.6329 14.95743657767353
SL-16 R/B               
1 22285U 92093B   25343.28120860  .00000224  00000+0  13896-3 0  9993
2 22285  71.0202 194.0560 0002086  82.2848 277.8511 14.15427072700366
COSMOS 2228             
1 22286U 92094A   25343.88241184  .00004283  00000+0  37198-3 0  9994
2 22286  82.5179 323.2683 0016384 241.8021 118.1547 14.96709052762624
